[{"OBJECT_NAME":"STARLINK-5833","OBJECT_ID":"2023-028AJ","EPOCH":"2026-03-09T16:57:55.674432","MEAN_MOTION":14.98333799,"ECCENTRICITY":0.00030462,"INCLINATION":70.0002,"RA_OF_ASC_NODE":224.4904,"ARG_OF_PERICENTER":270.7913,"MEAN_ANOMALY":89.2897,"EPHEMERIS_TYPE":0,"CLASSIFICATION_TYPE":"U","NORAD_CAT_ID":55773,"ELEMENT_SET_NO":999,"REV_AT_EPOCH":16653,"BSTAR":5.3827402e-5,"MEAN_MOTION_DOT":5.49e-6,"MEAN_MOTION_DDOT":0},{"OBJECT_NAME":"TITAN 3C TRANSTAGE DEB","OBJECT_ID":"1965-082MY","EPOCH":"2026-03-09T02:07:30.980928","MEAN_MOTION":14.9794194,"ECCENTRICITY":0.0005374,"INCLINATION":32.3706,"RA_OF_ASC_NODE":83.5066,"ARG_OF_PERICENTER":10.5158,"MEAN_ANOMALY":349.5614,"EPHEMERIS_TYPE":0,"CLASSIFICATION_TYPE":"U","NORAD_CAT_ID":3386,"ELEMENT_SET_NO":999,"REV_AT_EPOCH":23080,"BSTAR":0.0004514074,"MEAN_MOTION_DOT":5.483e-5,"MEAN_MOTION_DDOT":0}]
